{"type": "FeatureCollection", "features": [{"type": "Feature", "geometry": {"type": "Polygon", "coordinates": [[[-54.4744, -27.9833], [-54.4247, -27.9234], [-54.38, -27.9167], [-54.3825, -27.8723], [-54.3694, -27.8351], [-54.3651, -27.8093], [-54.4238, -27.7248], [-54.4209, -27.7021], [-54.4428, -27.7068], [-54.4339, -27.7143], [-54.457, -27.7836], [-54.5433, -27.7574], [-54.5532, -27.7881], [-54.5938, -27.7931], [-54.5647, -27.811], [-54.5598, -27.8408], [-54.6854, -27.8893], [-54.6162, -27.9364], [-54.5954, -27.9438], [-54.557, -27.9799], [-54.4744, -27.9833]]]}, "properties": {"codarea": "4317202"}}]}